{
"type": "FeatureCollection",
"name": "permesso",
"crs": { "type": "name", "properties": { "name": "urn:ogc:def:crs:OGC:1.3:CRS84" } },
"features": [
{ "type": "Feature", "properties": { "id": 1, "zona": "C" }, "geometry": { "type": "MultiLineString", "coordinates": [ [ [ 9.192997029796508, 31.706473235434814 ], [ 9.193434430838828, 31.665718949637277 ], [ 9.203849793789843, 31.664883755438375 ], [ 9.204078843620252, 31.61696627762765 ], [ 9.214947545639692, 31.615900718606134 ], [ 9.215054101541844, 31.603540233956576 ] ] ] } },
{ "type": "Feature", "properties": { "id": 2, "zona": "B" }, "geometry": { "type": "MultiLineString", "coordinates": [ [ [ 9.203672795285522, 31.710879464619243 ], [ 9.203788591010577, 31.676488134277612 ], [ 9.21467338916584, 31.675720987599117 ], [ 9.214808048723711, 31.62783479044035 ], [ 9.225557211703176, 31.626930655236468 ], [ 9.225657671170273, 31.602820383132993 ] ] ] } }
]
}
